CCSDS_OMM_VERS = 2.0
CREATION_DATE  = 
ORIGINATOR     = 

OBJECT_NAME    = CORAL
OBJECT_ID      = 1998-067YA
CENTER_NAME    = EARTH
REF_FRAME      = TEME
TIME_SYSTEM    = UTC
MEAN_ELEMENT_THEORY = SGP/SGP4

EPOCH          = 2026-03-29T02:19:26.988096
MEAN_MOTION    = 15.57621813
ECCENTRICITY   = .0012778
INCLINATION    = 51.6305
RA_OF_ASC_NODE = 334.5038
ARG_OF_PERICENTER = 245.5600
MEAN_ANOMALY   = 114.4059

EPHEMERIS_TYPE = 0
CLASSIFICATION_TYPE = U
NORAD_CAT_ID   = 67684
ELEMENT_SET_NO = 999
REV_AT_EPOCH   = 781
BSTAR          = .12606E-2
MEAN_MOTION_DOT = .95932E-3
MEAN_MOTION_DDOT = 0

CCSDS_OMM_VERS = 2.0
CREATION_DATE  = 
ORIGINATOR     = 

OBJECT_NAME    = GXIBA-1
OBJECT_ID      = 1998-067YB
CENTER_NAME    = EARTH
REF_FRAME      = TEME
TIME_SYSTEM    = UTC
MEAN_ELEMENT_THEORY = SGP/SGP4

EPOCH          = 2026-03-29T02:11:14.324064
MEAN_MOTION    = 15.53980859
ECCENTRICITY   = .0011973
INCLINATION    = 51.6326
RA_OF_ASC_NODE = 335.2157
ARG_OF_PERICENTER = 252.9526
MEAN_ANOMALY   = 107.0153

EPHEMERIS_TYPE = 0
CLASSIFICATION_TYPE = U
NORAD_CAT_ID   = 67685
ELEMENT_SET_NO = 999
REV_AT_EPOCH   = 780
BSTAR          = .79625E-3
MEAN_MOTION_DOT = .52441E-3
MEAN_MOTION_DDOT = 0

CCSDS_OMM_VERS = 2.0
CREATION_DATE  = 
ORIGINATOR     = 

OBJECT_NAME    = UITMSAT-2
OBJECT_ID      = 1998-067YC
CENTER_NAME    = EARTH
REF_FRAME      = TEME
TIME_SYSTEM    = UTC
MEAN_ELEMENT_THEORY = SGP/SGP4

EPOCH          = 2026-03-29T01:49:58.347264
MEAN_MOTION    = 15.54935303
ECCENTRICITY   = .00091
INCLINATION    = 51.6323
RA_OF_ASC_NODE = 335.1195
ARG_OF_PERICENTER = 224.8409
MEAN_ANOMALY   = 135.1847

EPHEMERIS_TYPE = 0
CLASSIFICATION_TYPE = U
NORAD_CAT_ID   = 67686
ELEMENT_SET_NO = 999
REV_AT_EPOCH   = 780
BSTAR          = .89979E-3
MEAN_MOTION_DOT = .61436E-3
MEAN_MOTION_DDOT = 0

CCSDS_OMM_VERS = 2.0
CREATION_DATE  = 
ORIGINATOR     = 

OBJECT_NAME    = HMU-SAT2
OBJECT_ID      = 1998-067YD
CENTER_NAME    = EARTH
REF_FRAME      = TEME
TIME_SYSTEM    = UTC
MEAN_ELEMENT_THEORY = SGP/SGP4

EPOCH          = 2026-03-28T23:13:09.401088
MEAN_MOTION    = 15.53712638
ECCENTRICITY   = .0008608
INCLINATION    = 51.6327
RA_OF_ASC_NODE = 335.8929
ARG_OF_PERICENTER = 227.2512
MEAN_ANOMALY   = 132.7755

EPHEMERIS_TYPE = 0
CLASSIFICATION_TYPE = U
NORAD_CAT_ID   = 67687
ELEMENT_SET_NO = 999
REV_AT_EPOCH   = 770
BSTAR          = .78829E-3
MEAN_MOTION_DOT = .51323E-3
MEAN_MOTION_DDOT = 0

CCSDS_OMM_VERS = 2.0
CREATION_DATE  = 
ORIGINATOR     = 

OBJECT_NAME    = LEOPARD
OBJECT_ID      = 1998-067YE
CENTER_NAME    = EARTH
REF_FRAME      = TEME
TIME_SYSTEM    = UTC
MEAN_ELEMENT_THEORY = SGP/SGP4

EPOCH          = 2026-03-28T22:54:31.520736
MEAN_MOTION    = 15.54486105
ECCENTRICITY   = .0008819
INCLINATION    = 51.6331
RA_OF_ASC_NODE = 335.8065
ARG_OF_PERICENTER = 224.9163
MEAN_ANOMALY   = 135.1115

EPHEMERIS_TYPE = 0
CLASSIFICATION_TYPE = U
NORAD_CAT_ID   = 67688
ELEMENT_SET_NO = 999
REV_AT_EPOCH   = 770
BSTAR          = .8474E-3
MEAN_MOTION_DOT = .56841E-3
MEAN_MOTION_DDOT = 0

CCSDS_OMM_VERS = 2.0
CREATION_DATE  = 
ORIGINATOR     = 

OBJECT_NAME    = CREW DRAGON 12
OBJECT_ID      = 2026-031A
CENTER_NAME    = EARTH
REF_FRAME      = TEME
TIME_SYSTEM    = UTC
MEAN_ELEMENT_THEORY = SGP/SGP4

EPOCH          = 2026-03-29T03:11:03.043104
MEAN_MOTION    = 15.48624340
ECCENTRICITY   = .0006215
INCLINATION    = 51.6344
RA_OF_ASC_NODE = 336.2407
ARG_OF_PERICENTER = 245.2164
MEAN_ANOMALY   = 114.8178

EPHEMERIS_TYPE = 0
CLASSIFICATION_TYPE = U
NORAD_CAT_ID   = 67796
ELEMENT_SET_NO = 999
REV_AT_EPOCH   = 55930
BSTAR          = .23326E-3
MEAN_MOTION_DOT = .1226E-3
MEAN_MOTION_DDOT = 0

CCSDS_OMM_VERS = 2.0
CREATION_DATE  = 
ORIGINATOR     = 

OBJECT_NAME    = PROGRESS-MS 33
OBJECT_ID      = 2026-058A
CENTER_NAME    = EARTH
REF_FRAME      = TEME
TIME_SYSTEM    = UTC
MEAN_ELEMENT_THEORY = SGP/SGP4

EPOCH          = 2026-03-29T03:11:03.043104
MEAN_MOTION    = 15.48624340
ECCENTRICITY   = .0006215
INCLINATION    = 51.6344
RA_OF_ASC_NODE = 336.2407
ARG_OF_PERICENTER = 245.2164
MEAN_ANOMALY   = 114.8178

EPHEMERIS_TYPE = 0
CLASSIFICATION_TYPE = U
NORAD_CAT_ID   = 68319
ELEMENT_SET_NO = 999
REV_AT_EPOCH   = 81
BSTAR          = .23326E-3
MEAN_MOTION_DOT = .1226E-3
MEAN_MOTION_DDOT = 0

